NORAD_CAT_ID,OBJECT_NAME,OBJECT_TYPE,EPOCH,MEAN_MOTION,ECCENTRICITY,INCLINATION,RA_OF_ASC_NODE,ARG_OF_PERICENTER,MEAN_ANOMALY,BSTAR,MEAN_MOTION_DOT,MEAN_MOTION_DDOT,TLE_LINE0,TLE_LINE1,TLE_LINE2,SEMIMAJOR_AXIS,PERIOD,APOGEE,PERIGEE,DECAYED
50176.0,STARLINK-3293,PAYLOAD,2024-07-31 19:04:10,15.08849941,0.0001312,53.2168,359.3063,88.7351,271.3792,0.0003593,5.436e-05,0.0,0 STARLINK-3293,1 50176U 21125W   24213.79457020  .00005436  00000-0  35930-3 0  9997,2 50176  53.2168 359.3063 0001312  88.7351 271.3792 15.08849941148197,6917.85,95.437,540.623,538.807,0.0
50176.0,STARLINK-3293,PAYLOAD,2024-08-01 03:01:07,15.08841239,0.0001632,53.2164,357.8204,77.8693,282.2482,0.00021124,3.076e-05,0.0,0 STARLINK-3293,1 50176U 21125W   24214.12577677  .00003076  00000-0  21124-3 0  9994,2 50176  53.2164 357.8204 0001632  77.8693 282.2482 15.08841239145114,6917.877,95.437,540.871,538.613,0.0
50176.0,STARLINK-3293,PAYLOAD,2024-08-01 18:54:57,15.08854854,0.0001353,53.2175,354.8442,85.7403,274.3744,0.00032385,4.872e-05,0.0,0 STARLINK-3293,1 50176U 21125W   24214.78816649  .00004872  00000-0  32385-3 0  9997,2 50176  53.2175 354.8442 0001353  85.7403 274.3744 15.08854854145215,6917.835,95.437,540.636,538.764,0.0
50176.0,STARLINK-3293,PAYLOAD,2024-08-02 02:51:54,15.08836243,0.0002486,53.2188,353.3569,93.5508,266.5769,-2.2141e-05,-6.41e-06,0.0,0 STARLINK-3293,1 50176U 21125W   24215.11937697 -.00000641  00000-0 -22141-4 0  9994,2 50176  53.2188 353.3569 0002486  93.5508 266.5769 15.08836243145261,6917.892,95.438,541.477,538.037,0.0
50176.0,STARLINK-3293,PAYLOAD,2024-08-02 13:59:36,15.08835855,0.0002189,53.2196,351.2774,91.4023,268.722,-1.5351e-05,-5.33e-06,0.0,0 STARLINK-3293,1 50176U 21125W   24215.58305769 -.00000533  00000-0 -15351-4 0  9999,2 50176  53.2196 351.2774 0002189  91.4023 268.7220 15.08835855148463,6917.893,95.438,541.272,538.244,0.0
50176.0,STARLINK-3293,PAYLOAD,2024-08-02 18:45:45,15.08836574,0.0001748,53.2194,350.3831,105.4728,254.6458,-2.9722e-05,-7.61e-06,0.0,0 STARLINK-3293,1 50176U 21125W   24215.78177754 -.00000761  00000-0 -29722-4 0  9992,2 50176  53.2194 350.3831 0001748 105.4728 254.6458 15.08836574148492,6917.891,95.438,540.965,538.547,0.0
50176.0,STARLINK-3293,PAYLOAD,2024-08-03 12:14:59,15.08845325,0.0001475,53.2148,347.1165,84.1382,275.9778,0.00022134,3.237e-05,0.0,0 STARLINK-3293,1 50176U 21125W   24216.51041549  .00003237  00000-0  22134-3 0  9994,2 50176  53.2148 347.1165 0001475  84.1382 275.9778 15.08845325145471,6917.864,95.437,540.749,538.709,0.0
50176.0,STARLINK-3293,PAYLOAD,2024-08-03 15:25:46,15.08850099,0.0001429,53.2169,346.5223,89.9627,270.1529,0.00033293,5.016e-05,0.0,0 STARLINK-3293,1 50176U 21125W   24216.64289503  .00005016  00000-0  33293-3 0  9997,2 50176  53.2169 346.5223 0001429  89.9627 270.1529 15.08850099148621,6917.85,95.437,540.703,538.726,0.0
50176.0,STARLINK-3293,PAYLOAD,2024-08-04 12:05:46,15.08846903,0.0001556,53.218,342.6558,94.2291,265.8879,0.00022494,3.294e-05,0.0,0 STARLINK-3293,1 50176U 21125W   24217.50401587  .00003294  00000-0  22494-3 0  9998,2 50176  53.2180 342.6558 0001556  94.2291 265.8879 15.08846903145624,6917.859,95.437,540.801,538.648,0.0
50176.0,STARLINK-3293,PAYLOAD,2024-08-04 15:16:32,15.0885352,0.0001181,53.2167,342.0659,77.1448,282.9676,0.00042978,6.561e-05,0.0,0 STARLINK-3293,1 50176U 21125W   24217.63649303  .00006561  00000-0  42978-3 0  9991,2 50176  53.2167 342.0659 0001181  77.1448 282.9676 15.08853520148770,6917.839,95.437,540.521,538.887,0.0
50176.0,STARLINK-3293,PAYLOAD,2024-08-04 18:27:18,15.08861759,0.0001354,53.2173,341.4656,73.6838,286.4303,0.00049324,7.575e-05,0.0,0 STARLINK-3293,1 50176U 21125W   24217.76896929  .00007575  00000-0  49324-3 0  9991,2 50176  53.2173 341.4656 0001354  73.6838 286.4303 15.08861759145667,6917.814,95.436,540.616,538.742,0.0
50176.0,STARLINK-3293,PAYLOAD,2024-08-05 00:48:52,15.08846729,0.0001431,53.218,340.2768,75.0101,285.105,0.0001746,2.492e-05,0.0,0 STARLINK-3293,1 50176U 21125W   24218.03393527  .00002492  00000-0  17460-3 0  9997,2 50176  53.2180 340.2768 0001431  75.0101 285.1050 15.08846729145701,6917.86,95.437,540.715,538.735,0.0
50176.0,STARLINK-3293,PAYLOAD,2024-08-05 11:56:34,15.0882362,0.0001376,53.2187,338.1972,89.3263,270.7887,-0.00030236,-5.095e-05,0.0,0 STARLINK-3293,1 50176U 21125W   24218.49762373 -.00005095  00000-0 -30236-3 0  9996,2 50176  53.2187 338.1972 0001376  89.3263 270.7887 15.08823620145776,6917.93,95.439,540.747,538.844,0.0
50176.0,STARLINK-3293,PAYLOAD,2024-08-05 15:07:20,15.0882724,0.000137,53.2186,337.6031,92.2692,267.8457,-0.00018182,-3.179e-05,0.0,0 STARLINK-3293,1 50176U 21125W   24218.63010385 -.00003179  00000-0 -18182-3 0  9998,2 50176  53.2186 337.6031 0001370  92.2692 267.8457 15.08827240148920,6917.919,95.438,540.732,538.837,0.0
50176.0,STARLINK-3293,PAYLOAD,2024-08-06 11:47:21,15.08839799,0.0001204,53.2169,333.7376,87.1449,272.9681,0.00016182,2.288e-05,0.0,0 STARLINK-3293,1 50176U 21125W   24219.49122639  .00002288  00000-0  16182-3 0  9995,2 50176  53.2169 333.7376 0001204  87.1449 272.9681 15.08839799145924,6917.881,95.438,540.579,538.913,0.0
50176.0,STARLINK-3293,PAYLOAD,2024-08-06 14:58:08,15.08849704,0.000122,53.2175,333.1407,79.7542,280.3588,0.00086926,0.00013577,0.0,0 STARLINK-3293,1 50176U 21125W   24219.62370698  .00013577  00000-0  86926-3 0  9996,2 50176  53.2175 333.1407 0001220  79.7542 280.3588 15.08849704149075,6917.851,95.437,540.56,538.872,0.0
50176.0,STARLINK-3293,PAYLOAD,2024-08-06 16:33:31,15.08850584,0.0001249,53.2176,332.844,86.3681,273.7454,0.0008618,0.00013458,0.0,0 STARLINK-3293,1 50176U 21125W   24219.68994669  .00013458  00000-0  86180-3 0  9992,2 50176  53.2176 332.8440 0001249  86.3681 273.7454 15.08850584149085,6917.848,95.437,540.577,538.849,0.0
50176.0,STARLINK-3293,PAYLOAD,2024-08-07 11:38:08,15.08859788,0.0001251,53.2163,329.2775,92.8588,267.2547,0.00061332,9.492e-05,0.0,0 STARLINK-3293,1 50176U 21125W   24220.48482196  .00009492  00000-0  61332-3 0  9994,2 50176  53.2163 329.2775 0001251  92.8588 267.2547 15.08859788146075,6917.82,95.436,540.55,538.819,0.0
50176.0,STARLINK-3293,PAYLOAD,2024-08-08 13:04:18,15.08853201,0.000161,53.2163,324.521,82.3645,277.753,0.00024452,3.607e-05,0.0,0 STARLINK-3293,1 50176U 21125W   24221.54465607  .00003607  00000-0  24452-3 0  9994,2 50176  53.2163 324.5210 0001610  82.3645 277.7530 15.08853201149361,6917.84,95.437,540.819,538.591,0.0
50176.0,STARLINK-3293,PAYLOAD,2024-08-08 14:39:41,15.08864964,0.0001462,53.2169,324.2207,77.1248,282.9907,0.00045339,6.94e-05,0.0,0 STARLINK-3293,1 50176U 21125W   24221.61089246  .00006940  00000-0  45339-3 0  9993,2 50176  53.2169 324.2207 0001462  77.1248 282.9907 15.08864964146244,6917.804,95.436,540.68,538.658,0.0
50176.0,STARLINK-3293,PAYLOAD,2024-08-09 00:12:00,15.08850626,0.0001338,53.2161,322.4366,91.954,268.1605,0.00021232,3.094e-05,0.0,0 STARLINK-3293,1 50176U 21125W   24222.00833336  .00003094  00000-0  21232-3 0  9997,2 50176  53.2161 322.4366 0001338  91.9540 268.1605 15.08850626146301,6917.848,95.437,540.639,538.787,0.0
50176.0,STARLINK-3293,PAYLOAD,2024-08-09 12:55:05,15.08842522,0.000125,53.2136,320.0607,82.8872,277.2262,-1.1136e-05,-4.65e-06,0.0,0 STARLINK-3293,1 50176U 21125W   24222.53825542 -.00000465  00000-0 -11136-4 0  9999,2 50176  53.2136 320.0607 0001250  82.8872 277.2262 15.08842522146389,6917.873,95.437,540.602,538.873,0.0
50176.0,STARLINK-3293,PAYLOAD,2024-08-09 16:05:51,15.08854199,0.0001584,53.2164,319.4604,110.2315,249.8848,0.00035874,5.428e-05,0.0,0 STARLINK-3293,1 50176U 21125W   24222.67072994  .00005428  00000-0  35874-3 0  9995,2 50176  53.2164 319.4604 0001584 110.2315 249.8848 15.08854199146408,6917.837,95.437,540.798,538.606,0.0
50176.0,STARLINK-3293,PAYLOAD,2024-08-10 12:45:52,15.08843835,0.0001734,53.2169,315.5981,94.1628,265.9562,0.00044559,6.811e-05,0.0,0 STARLINK-3293,1 50176U 21125W   24223.53185942  .00006811  00000-0  44559-3 0  9996,2 50176  53.2169 315.5981 0001734  94.1628 265.9562 15.08843835146533,6917.869,95.437,540.933,538.534,0.0
50176.0,STARLINK-3293,PAYLOAD,2024-08-10 15:56:38,15.08858032,0.0001593,53.2166,315.0,100.006,260.1112,0.00096479,0.00015108,0.0,0 STARLINK-3293,1 50176U 21125W   24223.66433635  .00015108  00000-0  96479-3 0  9992,2 50176  53.2166 315.0000 0001593 100.0060 260.1112 15.08858032146552,6917.825,95.436,540.792,538.588,0.0
50176.0,STARLINK-3293,PAYLOAD,2024-08-11 12:36:40,15.08857339,0.0001313,53.2158,311.1364,80.3008,279.8133,0.0023549,0.00037407,0.0,0 STARLINK-3293,1 50176U 21125W   24224.52546428  .00037407  00000-0  23549-2 0  9996,2 50176  53.2158 311.1364 0001313  80.3008 279.8133 15.08857339146688,6917.827,95.436,540.601,538.784,0.0
50176.0,STARLINK-3293,PAYLOAD,2024-08-12 04:30:31,15.08856214,9.4e-05,53.2168,308.1614,22.4716,337.6317,0.0023198,0.00036841,0.0,0 STARLINK-3293,1 50176U 21125W   24225.18786813  .00036841  00000-0  23198-2 0  9994,2 50176  53.2168 308.1614 0000940  22.4716 337.6317 15.08856214146780,6917.831,95.437,540.346,539.046,0.0
50176.0,STARLINK-3293,PAYLOAD,2024-08-12 09:16:40,15.08878844,8.38e-05,53.2156,307.2719,30.2532,329.8508,0.0024076,0.00038278,0.0,0 STARLINK-3293,1 50176U 21125W   24225.38658124  .00038278  00000-0  24076-2 0  9991,2 50176  53.2156 307.2719 0000838  30.2532 329.8508 15.08878844149941,6917.762,95.435,540.206,539.047,0.0
50176.0,STARLINK-3293,PAYLOAD,2024-08-13 05:56:39,15.0889926,0.0001498,53.2143,303.3983,80.3807,279.7354,0.0017337,0.00027457,0.0,0 STARLINK-3293,1 50176U 21125W   24226.24768111  .00027457  00000-0  17337-2 0  9994,2 50176  53.2143 303.3983 0001498  80.3807 279.7354 15.08899260146945,6917.699,95.434,540.601,538.528,0.0
50176.0,STARLINK-3293,PAYLOAD,2024-08-13 12:18:14,15.08750032,0.0001553,53.2157,302.2111,85.0595,275.0574,-0.0033959,-0.00053798,0.0,0 STARLINK-3293,1 50176U 21125W   24226.51266538 -.00053798  00000-0 -33959-2 0  9997,2 50176  53.2157 302.2111 0001553  85.0595 275.0574 15.08750032146989,6918.155,95.443,541.095,538.946,0.0
